KUIPER-00008            
1 63724U 25088A   25323.05522118  .00004078  00000+0  34429-3 0  9997
2 63724  51.8905 231.3170 0011438  94.0396 266.1883 15.00097665 31464
KUIPER-00009            
1 63725U 25088B   25323.77020744  .00003142  00000+0  43620-3 0  9999
2 63725  51.9019 232.6082 0013396  94.0040 266.2454 14.80387432 31500
KUIPER-00010            
1 63726U 25088C   25323.69865021  .00003007  00000+0  41995-3 0  9999
2 63726  51.9001 209.4309 0012381 135.7602 224.4352 14.80267045 31449
KUIPER-00011            
1 63727U 25088D   25323.72708874  .00001609  00000+0  24020-3 0  9992
2 63727  51.8996 216.9122 0014619 108.9680 251.2868 14.79925535 31478
KUIPER-00012            
1 63728U 25088E   25323.83336806 -.00028949  00000+0 -29631-2 0  9997
2 63728  51.8940 199.6712 0009610 119.5305 327.0392 14.89910041  5716
KUIPER-00013            
1 63729U 25088F   25323.77577434 -.00000015  00000+0  27279-4 0  9996
2 63729  51.9015 234.1201 0008252  28.4110 331.7301 14.79957137 31292
KUIPER-00014            
1 63730U 25088G   25323.77412569  .00001370  00000+0  20890-3 0  9990
2 63730  51.9017 235.0967 0010436  90.9525 269.2633 14.79926111 31095
KUIPER-00015            
1 63731U 25088H   25323.77693729  .00005467  00000+0  71353-3 0  9991
2 63731  51.8995 246.3896 0011042  75.4106 284.8081 14.81776334 31399
